{"type":"FeatureCollection","features":[{"type":"Feature","properties":{"Nama":"ULBI"},"geometry":{"type":"Point","coordinates":[107.575879,-6.873687]}},{"type":"Feature","properties":{"Nama":"Gedung Pendidikan"},"geometry":{"type":"Polygon","coordinates":[[[107.575251,-6.873212],[107.57523,-6.87358],[107.575792,-6.873627],[107.575813,-6.873262],[107.575251,-6.873212]]]}},{"type":"Feature","properties":{"fill":"rgba(5, 255, 30, 1)","Nama":"Lapangan tennis"},"geometry":{"type":"Polygon","coordinates":[[[107.576754,-6.872755],[107.576717,-6.87301],[107.576984,-6.873054],[107.577026,-6.872797],[107.576754,-6.872755]]]}},{"type":"Feature","properties":{"Nama":"Asrama Anggrek"},"geometry":{"type":"Polygon","coordinates":[[[107.575507,-6.872552],[107.575472,-6.873015],[107.575838,-6.873057],[107.57588,-6.872597],[107.575507,-6.872552]]]}},{"type":"Feature","properties":{"Nama":"Gedung FLTB"},"geometry":{"type":"Polygon","coordinates":[[[107.576169,-6.872481],[107.5761,-6.872947],[107.576444,-6.872999],[107.576513,-6.872547],[107.576169,-6.872481]]]}},{"type":"Feature","properties":{"Nama":"GOR","fill":"rgba(251, 235, 6, 1)"},"geometry":{"type":"Polygon","coordinates":[[[107.57654,-6.873167],[107.576508,-6.873441],[107.576809,-6.873475],[107.576845,-6.873205],[107.57654,-6.873167]]]}},{"type":"Feature","properties":{"Nama":"Pendopo","fill":"#fbeb06"},"geometry":{"type":"Polygon","coordinates":[[[107.576,-6.8731],[107.57598,-6.873195],[107.576095,-6.873211],[107.576113,-6.873079],[107.576038,-6.873073],[107.57603,-6.8731],[107.576,-6.8731]]]}},{"type":"Feature","properties":{"fill":"rgba(255, 174, 0, 1)","Nama":"Rektorat"},"geometry":{"type":"Polygon","coordinates":[[[107.575537,-6.87369],[107.57551,-6.873866],[107.575821,-6.873926],[107.575848,-6.873753],[107.575537,-6.87369]]]}},{"type":"Feature","properties":{},"geometry":{"type":"Polygon","coordinates":[[[107.57594,-6.872775],[107.57594,-6.872775],[107.57594,-6.872775],[107.57594,-6.872775]]]}},{"type":"Feature","properties":{"Nama":"Masjid","fill":"#fbeb06"},"geometry":{"type":"Polygon","coordinates":[[[107.576007,-6.872631],[107.575957,-6.872718],[107.575937,-6.872767],[107.575911,-6.872861],[107.575908,-6.872879],[107.575898,-6.87294],[107.575962,-6.872952],[107.575973,-6.872887],[107.576005,-6.872886],[107.576036,-6.872796],[107.576058,-6.872764],[107.576106,-6.872678],[107.576007,-6.872631]]]}},{"type":"Feature","properties":{"Nama":"Auditorium"},"geometry":{"type":"Polygon","coordinates":[[[107.576022,-6.873281],[107.575963,-6.87366],[107.576221,-6.873701],[107.576275,-6.873317],[107.576022,-6.873281]]]}},{"type":"Feature","properties":{},"geometry":{"type":"Polygon","coordinates":[[[107.575902,-6.874134],[107.575902,-6.874134],[107.575902,-6.874134],[107.575902,-6.874134]]]}},{"type":"Feature","properties":{},"geometry":{"type":"Polygon","coordinates":[[[107.575888,-6.874136],[107.575888,-6.874136],[107.575888,-6.874136],[107.575888,-6.874136]]]}},{"type":"Feature","properties":{"Nama":"Gedung Pos","fill":"#fbeb06"},"geometry":{"type":"Polygon","coordinates":[[[107.575899,-6.874132],[107.575867,-6.874277],[107.57596,-6.874295],[107.575982,-6.874144],[107.575899,-6.874132]]]}},{"type":"Feature","properties":{"Nama":"Sapras","fill":"#fbeb06"},"geometry":{"type":"Polygon","coordinates":[[[107.576674,-6.87279],[107.57665,-6.872945],[107.576713,-6.87295],[107.576736,-6.872794],[107.576674,-6.87279]]]}},{"type":"Feature","properties":{"Nama":"Denah"},"geometry":{"type":"LineString","coordinates":[[107.576079,-6.872613],[107.57525,-6.872464],[107.575152,-6.873165],[107.575095,-6.873594],[107.574796,-6.873987],[107.57584,-6.874481],[107.576262,-6.874123],[107.57663,-6.873635],[107.576907,-6.8735],[107.577224,-6.872216],[107.576781,-6.872155],[107.576702,-6.872473],[107.576129,-6.872384],[107.576079,-6.872613]]}},{"type":"Feature","properties":{"Nama":"Satpam","fill":"rgba(255, 42, 42, 1)"},"geometry":{"type":"Polygon","coordinates":[[[107.575955,-6.874011],[107.575943,-6.874118],[107.576064,-6.874138],[107.576082,-6.874033],[107.575955,-6.874011]]]}},{"type":"Feature","properties":{"Nama":"Parkiran","fill":"rgba(255, 193, 94, 1)"},"geometry":{"type":"Polygon","coordinates":[[[107.575175,-6.873198],[107.575112,-6.873583],[107.575175,-6.873599],[107.575212,-6.873468],[107.575179,-6.87346],[107.575189,-6.873405],[107.575208,-6.873409],[107.575232,-6.873255],[107.57521,-6.873245],[107.575212,-6.873202],[107.575175,-6.873198]]]}},{"type":"Feature","properties":{"Nama":"Kantin Orange","fill":"rgba(255, 145, 1, 1)"},"geometry":{"type":"Polygon","coordinates":[[[107.576565,-6.873462],[107.576558,-6.873496],[107.576644,-6.873507],[107.576645,-6.873468],[107.576565,-6.873462]]]}},{"type":"Feature","properties":{"Nama":"Asrama Gandaria"},"geometry":{"type":"Polygon","coordinates":[[[107.575023,-6.87374],[107.575001,-6.873937],[107.57514,-6.873957],[107.575176,-6.873986],[107.575169,-6.874065],[107.575337,-6.874089],[107.575348,-6.874012],[107.575408,-6.873951],[107.575419,-6.873858],[107.575193,-6.873823],[107.575196,-6.873753],[107.575023,-6.87374]]]}},{"type":"Feature","properties":{"Nama":"COT"},"geometry":{"type":"Polygon","coordinates":[[[107.5765,-6.873532],[107.57649,-6.87358],[107.576464,-6.873576],[107.576466,-6.873662],[107.576486,-6.873662],[107.576486,-6.873612],[107.576577,-6.873631],[107.576592,-6.873549],[107.5765,-6.873532]]]}},{"type":"Feature","properties":{},"geometry":{"type":"Polygon","coordinates":[[[107.576819,-6.873466],[107.576867,-6.873476],[107.576896,-6.873374],[107.576905,-6.873285],[107.576933,-6.873289],[107.576951,-6.873163],[107.576883,-6.873149],[107.576851,-6.873364],[107.576832,-6.873361],[107.576819,-6.873466]]]}},{"type":"Feature","properties":{"Nama":"Gedung Raflesia"},"geometry":{"type":"Polygon","coordinates":[[[107.576813,-6.87218],[107.576754,-6.872619],[107.576915,-6.872648],[107.577066,-6.872681],[107.577139,-6.872229],[107.576813,-6.87218]]]}},{"type":"Feature","properties":{},"geometry":{"type":"Polygon","coordinates":[[[107.574862,-6.873913],[107.574845,-6.873991],[107.574929,-6.87401],[107.574953,-6.873932],[107.574862,-6.873913]]]}},{"type":"Feature","properties":{},"geometry":{"type":"Polygon","coordinates":[[[107.576129,-6.874072],[107.576107,-6.874155],[107.576164,-6.874166],[107.576182,-6.874096],[107.576129,-6.874072]]]}},{"type":"Feature","properties":{"fill":"rgba(255, 140, 0, 1)","Nama":"Gedung YPBI"},"geometry":{"type":"Polygon","coordinates":[[[107.575635,-6.874438],[107.575542,-6.874697],[107.575629,-6.874732],[107.575736,-6.874471],[107.575635,-6.874438]]]}},{"type":"Feature","properties":{},"geometry":{"type":"Polygon","coordinates":[[[107.576646,-6.872989],[107.576644,-6.873061],[107.576681,-6.873061],[107.576689,-6.872989],[107.576646,-6.872989]]]}},{"type":"Feature","properties":{},"geometry":{"type":"Polygon","coordinates":[[[107.576207,-6.873195],[107.576204,-6.873236],[107.57625,-6.873236],[107.576258,-6.873206],[107.576207,-6.873195]]]}},{"type":"Feature","properties":{},"geometry":{"type":"Polygon","coordinates":[[[107.576551,-6.872555],[107.576551,-6.872598],[107.576615,-6.872603],[107.576621,-6.872568],[107.576551,-6.872555]]]}},{"type":"Feature","properties":{},"geometry":{"type":"Polygon","coordinates":[[[107.576315,-6.873453],[107.57631,-6.873509],[107.576369,-6.873512],[107.57638,-6.873469],[107.576315,-6.873453]]]}},{"type":"Feature","properties":{},"geometry":{"type":"LineString","coordinates":[[107.575687,-6.873713],[107.575706,-6.87367],[107.575879,-6.873686],[107.575903,-6.87332],[107.57593,-6.872945]]}},{"type":"Feature","properties":{},"geometry":{"type":"LineString","coordinates":[[107.575628,-6.873031],[107.57562,-6.873114],[107.575992,-6.873141]]}},{"type":"Feature","properties":{},"geometry":{"type":"LineString","coordinates":[[107.5758,-6.873448],[107.575997,-6.873464]]}},{"type":"Feature","properties":{},"geometry":{"type":"LineString","coordinates":[[107.576104,-6.873147],[107.576233,-6.873162],[107.576257,-6.872974],[107.576228,-6.873205]]}},{"type":"Feature","properties":{},"geometry":{"type":"Polygon","coordinates":[[[107.576204,-6.872411],[107.576198,-6.872474],[107.576263,-6.872476],[107.576271,-6.872421],[107.576204,-6.872411]]]}}]}